{
  "norad_id": 49434,
  "name": "STARLINK-3134",
  "history": [
    {
      "epoch": "2026-03-28T21:19:21.385344",
      "apogee_km": 540.690350530539,
      "perigee_km": 538.8266694801432,
      "latitude_deg": -39.34051885340131,
      "longitude_deg": -71.30957184010185,
      "semi_major_axis_km": 6917.895510005341,
      "eccentricity": 0.0001347,
      "inclination_deg": 53.2158,
      "raan_deg": 143.0936,
      "arg_perigee_deg": 85.2054,
      "mean_anomaly_deg": 274.9092,
      "mean_motion_rev_day": 15.08835053
    }
  ]
}